ADRAS-J                 
1 58992U 24034A   24232.18584431  .00006264  00000+0  57149-3 0  9999
2 58992  98.2076 208.0963 0043908 198.0291 161.9373 14.94740651 27278
